NORAD_CAT_ID,OBJECT_NAME,OBJECT_TYPE,EPOCH,MEAN_MOTION,ECCENTRICITY,INCLINATION,RA_OF_ASC_NODE,ARG_OF_PERICENTER,MEAN_ANOMALY,BSTAR,MEAN_MOTION_DOT,MEAN_MOTION_DDOT,TLE_LINE0,TLE_LINE1,TLE_LINE2,SEMIMAJOR_AXIS,PERIOD,APOGEE,PERIGEE,DECAYED
53275.0,STARLINK-4179,PAYLOAD,2023-02-09 09:35:09,15.08825564,9.94e-05,53.2134,191.2626,105.5349,254.5753,-0.00010874,-2.017e-05,0.0,0 STARLINK-4179,1 53275U 22086AK  23040.39941332 -.00002017  00000-0 -10874-3 0  9998,2 53275  53.2134 191.2626 0000994 105.5349 254.5753 15.08825564 31467,6917.925,95.438,540.477,539.102,0.0
53275.0,STARLINK-4179,PAYLOAD,2023-02-09 19:07:27,15.08853049,0.000117,53.212,189.4778,98.0184,262.0941,0.00037805,5.736e-05,0.0,0 STARLINK-4179,1 53275U 22086AK  23040.79684224  .00005736  00000-0  37805-3 0  9998,2 53275  53.2120 189.4778 0001170  98.0184 262.0941 15.08853049 31359,6917.841,95.437,540.515,538.896,0.0
53275.0,STARLINK-4179,PAYLOAD,2023-02-10 03:04:23,15.08834201,0.0001955,53.2151,187.9934,77.7716,282.3495,0.00011133,1.484e-05,0.0,0 STARLINK-4179,1 53275U 22086AK  23041.12805309  .00001484  00000-0  11133-3 0  9997,2 53275  53.2151 187.9934 0001955  77.7716 282.3495 15.08834201 31578,6917.898,95.438,541.116,538.411,0.0
53275.0,STARLINK-4179,PAYLOAD,2023-02-10 14:12:05,15.08844012,0.000138,53.2126,185.909,83.7827,276.3322,0.0004751,7.282e-05,0.0,0 STARLINK-4179,1 53275U 22086AK  23041.59173032  .00007282  00000-0  47510-3 0  9999,2 53275  53.2126 185.9090 0001380  83.7827 276.3322 15.08844012 31475,6917.868,95.437,540.688,538.778,0.0
53275.0,STARLINK-4179,PAYLOAD,2023-02-10 18:58:14,15.08854395,0.0001544,53.2134,185.0172,82.2512,277.8655,0.000951,0.00014886,0.0,0 STARLINK-4179,1 53275U 22086AK  23041.79044914  .00014886  00000-0  95100-3 0  9993,2 53275  53.2134 185.0172 0001544  82.2512 277.8655 15.08854395 31675,6917.836,95.437,540.77,538.633,0.0
53275.0,STARLINK-4179,PAYLOAD,2023-02-11 02:55:11,15.08834181,0.0001467,53.213,183.5312,68.8368,291.2781,0.00034817,5.257e-05,0.0,0 STARLINK-4179,1 53275U 22086AK  23042.12165530  .00005257  00000-0  34817-3 0  9999,2 53275  53.2130 183.5312 0001467  68.8368 291.2781 15.08834181 31551,6917.898,95.438,540.778,538.748,0.0
53275.0,STARLINK-4179,PAYLOAD,2023-02-11 20:24:24,15.08866784,0.0001286,53.2121,180.26,69.9132,290.1999,0.0013953,0.00022004,0.0,0 STARLINK-4179,1 53275U 22086AK  23042.85028917  .00022004  00000-0  13953-2 0  9992,2 53275  53.2121 180.2600 0001286  69.9132 290.1999 15.08866784 31660,6917.799,95.436,540.553,538.774,0.0
53275.0,STARLINK-4179,PAYLOAD,2023-02-12 20:15:10,15.08851028,0.0004782,53.2137,175.8041,230.9517,129.105,0.0011456,0.00018,0.0,0 STARLINK-4179,1 53275U 22086AK  23043.84386912  .00018000  00000-0  11456-2 0  9991,2 53275  53.2137 175.8041 0004782 230.9517 129.1050 15.08851028 31818,6917.847,95.437,543.02,536.404,0.0
53275.0,STARLINK-4179,PAYLOAD,2023-02-13 15:19:50,15.088499,0.000121,53.2132,172.2294,89.9139,270.1992,0.0014735,0.00023247,0.0,0 STARLINK-4179,1 53275U 22086AK  23044.63877487  .00023247  00000-0  14735-2 0  9993,2 53275  53.2132 172.2294 0001210  89.9139 270.1992 15.08849900 31930,6917.85,95.437,540.552,538.878,0.0
53275.0,STARLINK-4179,PAYLOAD,2023-02-14 00:52:09,15.08838577,0.0001973,53.2145,170.4421,91.0445,269.0773,0.00043627,6.662e-05,0.0,0 STARLINK-4179,1 53275U 22086AK  23045.03621535  .00006662  00000-0  43627-3 0  9994,2 53275  53.2145 170.4421 0001973  91.0445 269.0773 15.08838577 31994,6917.885,95.438,541.115,538.385,0.0
53275.0,STARLINK-4179,PAYLOAD,2023-02-14 15:10:37,15.08845121,0.0001557,53.2109,167.7703,90.5803,269.5368,0.00047254,7.242e-05,0.0,0 STARLINK-4179,1 53275U 22086AK  23045.63237425  .00007242  00000-0  47254-3 0  9996,2 53275  53.2109 167.7703 0001557  90.5803 269.5368 15.08845121 32254,6917.865,95.437,540.807,538.653,0.0
53275.0,STARLINK-4179,PAYLOAD,2023-02-14 19:56:46,15.08848731,0.000172,53.2109,166.8778,88.9109,271.208,0.00062594,9.69e-05,0.0,0 STARLINK-4179,1 53275U 22086AK  23045.83109384  .00009690  00000-0  62594-3 0  9993,2 53275  53.2109 166.8778 0001720  88.9109 271.2080 15.08848731 32282,6917.854,95.437,540.909,538.529,0.0
53275.0,STARLINK-4179,PAYLOAD,2023-02-15 11:50:38,15.08841809,0.0002046,53.2119,163.9022,92.6823,267.4403,0.00030385,4.551e-05,0.0,0 STARLINK-4179,1 53275U 22086AK  23046.49349554  .00004551  00000-0  30385-3 0  9995,2 53275  53.2119 163.9022 0002046  92.6823 267.4403 15.08841809 32218,6917.875,95.437,541.155,538.324,0.0
53275.0,STARLINK-4179,PAYLOAD,2023-02-15 13:26:01,15.0884906,0.0001906,53.2132,163.6079,70.3849,289.7349,0.00047237,7.24e-05,0.0,0 STARLINK-4179,1 53275U 22086AK  23046.55973648  .00007240  00000-0  47237-3 0  9991,2 53275  53.2132 163.6079 0001906  70.3849 289.7349 15.08849060 32399,6917.853,95.437,541.036,538.399,0.0
53275.0,STARLINK-4179,PAYLOAD,2023-02-15 18:12:09,15.08895858,0.0001249,53.2118,162.7156,98.5729,261.5405,0.0035862,0.00057339,0.0,0 STARLINK-4179,1 53275U 22086AK  23046.75844750  .00057339  00000-0  35862-2 0  9998,2 53275  53.2118 162.7156 0001249  98.5729 261.5405 15.08895858 32250,6917.71,95.434,540.439,538.711,0.0
53275.0,STARLINK-4179,PAYLOAD,2023-02-16 13:16:47,15.08858656,0.0001198,53.2123,159.1459,90.2732,269.8397,0.0019012,0.00030115,0.0,0 STARLINK-4179,1 53275U 22086AK  23047.55333140  .00030115  00000-0  19012-2 0  9995,2 53275  53.2123 159.1459 0001198  90.2732 269.8397 15.08858656 32377,6917.823,95.436,540.517,538.86,0.0
53275.0,STARLINK-4179,PAYLOAD,2023-02-16 19:38:20,15.08879132,0.0001277,53.2115,157.9551,49.5022,310.6081,0.0019882,0.0003153,0.0,0 STARLINK-4179,1 53275U 22086AK  23047.81828724  .00031530  00000-0  19882-2 0  9998,2 53275  53.2115 157.9551 0001277  49.5022 310.6081 15.08879132 32584,6917.761,95.435,540.509,538.742,0.0
53275.0,STARLINK-4179,PAYLOAD,2023-02-17 06:46:02,15.088192,0.0001159,53.2113,155.8757,86.0671,274.0454,0.0029269,0.00046575,0.0,0 STARLINK-4179,1 53275U 22086AK  23048.28197677  .00046575  00000-0  29269-2 0  9991,2 53275  53.2113 155.8757 0001159  86.0671 274.0454 15.08819200 32488,6917.944,95.439,540.611,539.007,0.0
53275.0,STARLINK-4179,PAYLOAD,2023-02-17 13:07:34,15.08854594,0.0001218,53.2111,154.6853,57.3938,302.7172,0.0017801,0.00028167,0.0,0 STARLINK-4179,1 53275U 22086AK  23048.54693258  .00028167  00000-0  17801-2 0  9992,2 53275  53.2111 154.6853 0001218  57.3938 302.7172 15.08854594 32697,6917.836,95.437,540.543,538.858,0.0
53275.0,STARLINK-4179,PAYLOAD,2023-02-17 19:29:07,15.08875131,0.0001688,53.2107,153.4957,61.0178,299.0983,0.0021445,0.0003404,0.0,0 STARLINK-4179,1 53275U 22086AK  23048.81188896  .00034040  00000-0  21445-2 0  9995,2 53275  53.2107 153.4957 0001688  61.0178 299.0983 15.08875131 32736,6917.773,95.435,540.806,538.47,0.0
53275.0,STARLINK-4179,PAYLOAD,2023-02-18 06:36:50,15.0879611,0.0001371,53.2121,151.4132,83.1815,276.9333,0.0011663,0.000183,0.0,0 STARLINK-4179,1 53275U 22086AK  23049.27558121  .00018300  00000-0  11663-2 0  9990,2 53275  53.2121 151.4132 0001371  83.1815 276.9333 15.08796110 32638,6918.015,95.44,540.828,538.931,0.0
53275.0,STARLINK-4179,PAYLOAD,2023-02-18 12:58:23,15.08822825,0.0001924,53.2103,150.2237,90.4676,269.6537,0.0015298,0.00024131,0.0,0 STARLINK-4179,1 53275U 22086AK  23049.54054477  .00024131  00000-0  15298-2 0  9992,2 53275  53.2103 150.2237 0001924  90.4676 269.6537 15.08822825 32842,6917.933,95.439,541.129,538.467,0.0
53275.0,STARLINK-4179,PAYLOAD,2023-02-18 17:44:32,15.08837209,0.0001485,53.2116,149.3326,75.2547,284.8609,0.0021193,0.00033599,0.0,0 STARLINK-4179,1 53275U 22086AK  23049.73926592  .00033599  00000-0  21193-2 0  9998,2 53275  53.2116 149.3326 0001485  75.2547 284.8609 15.08837209 32700,6917.889,95.438,540.781,538.727,0.0
53275.0,STARLINK-4179,PAYLOAD,2023-02-19 00:06:05,15.08838378,0.0001248,53.2132,148.1429,76.6536,283.4595,0.001291,0.00020317,0.0,0 STARLINK-4179,1 53275U 22086AK  23050.00422668  .00020317  00000-0  12910-2 0  9996,2 53275  53.2132 148.1429 0001248  76.6536 283.4595 15.08838378 32740,6917.885,95.438,540.614,538.887,0.0
53275.0,STARLINK-4179,PAYLOAD,2023-02-19 12:49:10,15.0885391,0.0001522,53.213,145.7631,76.9953,283.1209,0.0010655,0.00016717,0.0,0 STARLINK-4179,1 53275U 22086AK  23050.53414453  .00016717  00000-0  10655-2 0  9990,2 53275  53.2130 145.7631 0001522  76.9953 283.1209 15.08853910 32992,6917.838,95.437,540.756,538.65,0.0
53275.0,STARLINK-4179,PAYLOAD,2023-02-20 12:39:56,15.08854817,0.0001364,53.2134,141.3019,78.0921,282.0224,0.00066076,0.00010248,0.0,0 STARLINK-4179,1 53275U 22086AK  23051.52774177  .00010248  00000-0  66076-3 0  9994,2 53275  53.2134 141.3019 0001364  78.0921 282.0224 15.08854817 32970,6917.835,95.437,540.644,538.757,0.0
53275.0,STARLINK-4179,PAYLOAD,2023-02-21 06:09:11,15.08843496,0.0001416,53.2126,138.0329,90.7707,269.3448,0.0008795,0.00013738,0.0,0 STARLINK-4179,1 53275U 22086AK  23052.25638166  .00013738  00000-0  87950-3 0  9993,2 53275  53.2126 138.0329 0001416  90.7707 269.3448 15.08843496 33089,6917.87,95.437,540.714,538.755,0.0
53275.0,STARLINK-4179,PAYLOAD,2023-02-21 12:30:43,15.08863594,0.0001246,53.2129,136.8437,92.6581,267.4554,0.0021686,0.00034416,0.0,0 STARLINK-4179,1 53275U 22086AK  23052.52134029  .00034416  00000-0  21686-2 0  9991,2 53275  53.2129 136.8437 0001246  92.6581 267.4554 15.08863594 33291,6917.808,95.436,540.535,538.811,0.0
53275.0,STARLINK-4179,PAYLOAD,2023-02-21 17:16:52,15.08880062,0.0001265,53.213,135.9514,90.787,269.3267,0.0024558,0.00039056,0.0,0 STARLINK-4179,1 53275U 22086AK  23052.72005609  .00039056  00000-0  24558-2 0  9990,2 53275  53.2130 135.9514 0001265  90.7870 269.3267 15.08880062 33156,6917.758,95.435,540.498,538.748,0.0
53275.0,STARLINK-4179,PAYLOAD,2023-02-21 22:03:03,15.08836212,0.0003462,53.2134,135.059,96.7833,263.3553,-4.5525e-05,-1.013e-05,0.0,0 STARLINK-4179,1 53275U 22086AK  23052.91878697 -.00001013  00000-0 -45525-4 0  9999,2 53275  53.2134 135.0590 0003462  96.7833 263.3553 15.08836212 33184,6917.892,95.438,542.152,537.362,0.0
